NORAD_CAT_ID,OBJECT_NAME,OBJECT_TYPE,EPOCH,MEAN_MOTION,ECCENTRICITY,INCLINATION,RA_OF_ASC_NODE,ARG_OF_PERICENTER,MEAN_ANOMALY,BSTAR,MEAN_MOTION_DOT,MEAN_MOTION_DDOT,TLE_LINE0,TLE_LINE1,TLE_LINE2,SEMIMAJOR_AXIS,PERIOD,APOGEE,PERIGEE,DECAYED
51798.0,STARLINK-3634,PAYLOAD,2023-01-01 10:29:07,15.08830135,0.0002716,53.2159,171.1601,34.9912,325.1258,-7.8681e-05,-1.5399999999999998e-05,0.0,0 STARLINK-3634,1 51798U 22017AG  23001.43688678 -.00001540  00000-0 -78681-4 0  9994,2 51798  53.2159 171.1601 0002716  34.9912 325.1258 15.08830135 48358,6917.911,95.438,541.654,537.8969999999998,0.0
51798.0,STARLINK-3634,PAYLOAD,2023-01-01 13:39:53,15.08830506,0.0002681,53.2169,170.5654,34.7125,325.4042,-2.2014e-05,-6.39e-06,0.0,0 STARLINK-3634,1 51798U 22017AG  23001.56937221 -.00000639  00000-0 -22014-4 0  9996,2 51798  53.2169 170.5654 0002681  34.7125 325.4042 15.08830506 48373,6917.909000000002,95.438,541.629,537.92,0.0
51798.0,STARLINK-3634,PAYLOAD,2023-01-01 16:50:39,15.08832036,0.0002583999999999,53.2171,169.9706,36.2403,323.8764,-1.459e-05,-5.21e-06,0.0,0 STARLINK-3634,1 51798U 22017AG  23001.70185158 -.00000521  00000-0 -14590-4 0  9996,2 51798  53.2171 169.9706 0002584  36.2403 323.8764 15.08832036 48399,6917.905,95.438,541.557,537.982,0.0
51798.0,STARLINK-3634,PAYLOAD,2023-01-01 18:26:03,15.08832306,0.0002605,53.2171,169.6733,36.0825,324.0342,-9.908e-06,-4.46e-06,0.0,0 STARLINK-3634,1 51798U 22017AG  23001.76809167 -.00000446  00000-0 -99080-5 0  9999,2 51798  53.2171 169.6733 0002605  36.0825 324.0342 15.08832306 48403,6917.904,95.438,541.571,537.967,0.0
51798.0,STARLINK-3634,PAYLOAD,2023-01-02 15:06:02,15.08849688,0.0002533,53.2176,165.8076,32.0533,328.0613,0.00020236,2.935e-05,0.0,0 STARLINK-3634,1 51798U 22017AG  23002.62919298  .00002935  00000-0  20236-3 0  9990,2 51798  53.2176 165.8076 0002533  32.0533 328.0613 15.08849688 48538,6917.851,95.437,541.4680000000002,537.9630000000002,0.0
51798.0,STARLINK-3634,PAYLOAD,2023-01-02 18:16:48,15.08843295,0.0001746,53.2175,165.2128,37.0361,323.0752,0.00012036,1.628e-05,0.0,0 STARLINK-3634,1 51798U 22017AG  23002.76167602  .00001628  00000-0  12036-3 0  9996,2 51798  53.2175 165.2128 0001746  37.0361 323.0752 15.08843295 48557,6917.87,95.437,540.943,538.5269999999998,0.0
51798.0,STARLINK-3634,PAYLOAD,2023-01-03 16:32:14,15.08822518,0.0002387,53.2175,161.0499,31.6182,328.4953,1.9299e-05,1.9e-07,0.0,0 STARLINK-3634,1 51798U 22017AG  23003.68905818  .00000019  00000-0  19299-4 0  9999,2 51798  53.2175 161.0499 0002387  31.6182 328.4953 15.08822518 48697,6917.934,95.439,541.45,538.148,0.0
51798.0,STARLINK-3634,PAYLOAD,2023-01-04 03:39:55,15.08850884,0.0002449,53.2188,158.9685,28.4585,331.654,-0.00027077,-4.597e-05,0.0,0 STARLINK-3634,1 51798U 22017AG  23004.15272902 -.00004597  00000-0 -27077-3 0  9992,2 51798  53.2188 158.9685 0002449  28.4585 331.6540 15.08850884 48766,6917.847,95.437,541.406,538.018,0.0
51798.0,STARLINK-3634,PAYLOAD,2023-01-04 19:33:46,15.08841393,0.0002376,53.2169,155.9951,30.0819,330.0309,0.00014543,2.027e-05,0.0,0 STARLINK-3634,1 51798U 22017AG  23004.81512308  .00002027  00000-0  14543-3 0  9990,2 51798  53.2169 155.9951 0002376  30.0819 330.0309 15.08841393 48868,6917.876,95.437,541.385,538.097,0.0
51798.0,STARLINK-3634,PAYLOAD,2023-01-05 03:30:41,15.08847634,0.0002374,53.2184,154.5087,30.7215,329.3916,0.00021715,3.17e-05,0.0,0 STARLINK-3634,1 51798U 22017AG  23005.14631693  .00003170  00000-0  21715-3 0  9995,2 51798  53.2184 154.5087 0002374  30.7215 329.3916 15.08847634 48910,6917.857,95.437,541.364,538.08,0.0
51798.0,STARLINK-3634,PAYLOAD,2023-01-05 09:52:14,15.08845423,0.0002373,53.22,153.3203,32.7663,327.3476,0.00017364,2.477e-05,0.0,0 STARLINK-3634,1 51798U 22017AG  23005.41128013  .00002477  00000-0  17364-3 0  9996,2 51798  53.2200 153.3203 0002373  32.7663 327.3476 15.08845423 48951,6917.864000000001,95.437,541.37,538.087,0.0
51798.0,STARLINK-3634,PAYLOAD,2023-01-05 16:13:47,15.08845831,0.0002525,53.2189,152.1321,29.0668,331.0464,0.00015444,2.171e-05,0.0,0 STARLINK-3634,1 51798U 22017AG  23005.67623984  .00002171  00000-0  15444-3 0  9999,2 51798  53.2189 152.1321 0002525  29.0668 331.0464 15.08845831 48994,6917.863,95.437,541.474,537.981,0.0
51798.0,STARLINK-3634,PAYLOAD,2023-01-06 09:43:02,15.08835839,0.0002507,53.219,148.8587,33.0995,327.0154,-1.3854000000000003e-05,-5.09e-06,0.0,0 STARLINK-3634,1 51798U 22017AG  23006.40489371 -.00000509  00000-0 -13854-4 0  9990,2 51798  53.2190 148.8587 0002507  33.0995 327.0154 15.08835839 49102,6917.893,95.438,541.492,538.024,0.0
51798.0,STARLINK-3634,PAYLOAD,2023-01-07 19:06:09,15.08836356,0.0002518,53.218,142.6145,26.4301,333.6819,-1.9406e-05,-5.97e-06,0.0,0 STARLINK-3634,1 51798U 22017AG  23007.79593892 -.00000597  00000-0 -19406-4 0  9993,2 51798  53.2180 142.6145 0002518  26.4301 333.6819 15.08836356 49311,6917.892,95.438,541.498,538.015,0.0
51798.0,STARLINK-3634,PAYLOAD,2023-01-08 07:49:13,15.08844453,0.0002634,53.2173,140.2356,21.4609,338.6493,7.594399999999999e-05,9.21e-06,0.0,0 STARLINK-3634,1 51798U 22017AG  23008.32585528  .00000921  00000-0  75944-4 0  9998,2 51798  53.2173 140.2356 0002634  21.4609 338.6493 15.08844453 49394,6917.866999999998,95.437,541.554,537.91,0.0
51798.0,STARLINK-3634,PAYLOAD,2023-01-08 15:46:10,15.08827944,0.0002593,53.218,138.7485,23.7415,336.3697,0.00026791,3.977e-05,0.0,0 STARLINK-3634,1 51798U 22017AG  23008.65706255  .00003977  00000-0  26791-3 0  9995,2 51798  53.2180 138.7485 0002593  23.7415 336.3697 15.08827944 49444,6917.917,95.438,541.576,537.988,0.0
51798.0,STARLINK-3634,PAYLOAD,2023-01-09 17:12:20,15.08841689,0.0002622,53.2182,133.991,24.834,335.2778,0.00015116,2.118e-05,0.0,0 STARLINK-3634,1 51798U 22017AG  23009.71690124  .00002118  00000-0  15116-3 0  9995,2 51798  53.2182 133.9910 0002622  24.8340 335.2778 15.08841689 49606,6917.875,95.437,541.554,537.9259999999998,0.0
51798.0,STARLINK-3634,PAYLOAD,2023-01-10 12:16:58,15.08831995,0.0002506,53.2171,130.4224,16.7779,343.3296,7.2979e-06,-1.72e-06,0.0,0 STARLINK-3634,1 51798U 22017AG  23010.51179002 -.00000172  00000-0  72979-5 0  9993,2 51798  53.2171 130.4224 0002506  16.7779 343.3296 15.08831995 49728,6917.905,95.438,541.503,538.036,0.0
51798.0,STARLINK-3634,PAYLOAD,2023-01-10 15:27:44,15.08834037,0.000261,53.2172,129.8282,21.4629,338.6472,3.9693e-05,3.43e-06,0.0,0 STARLINK-3634,1 51798U 22017AG  23010.64426906  .00000343  00000-0  39693-4 0  9999,2 51798  53.2172 129.8282 0002610  21.4629 338.6472 15.08834037 49743,6917.899,95.438,541.569,537.9580000000002,0.0
51798.0,STARLINK-3634,PAYLOAD,2023-01-11 13:43:07,15.08855474,0.0002624,53.2186,125.6645,21.3972,338.7129,0.00019196,2.769e-05,0.0,0 STARLINK-3634,1 51798U 22017AG  23011.57161068  .00002769  00000-0  19196-3 0  9996,2 51798  53.2186 125.6645 0002624  21.3972 338.7129 15.08855474 49883,6917.833000000001,95.437,541.513,537.883,0.0
51798.0,STARLINK-3634,PAYLOAD,2023-01-11 15:18:29,15.08876344,0.0002545,53.2182,125.3677,19.6629,340.4461,-0.00039135,-6.518e-05,0.0,0 STARLINK-3634,1 51798U 22017AG  23011.63784403 -.00006518  00000-0 -39135-3 0  9990,2 51798  53.2182 125.3677 0002545  19.6629 340.4461 15.08876344 49891,6917.769,95.435,541.395,537.874,0.0
51798.0,STARLINK-3634,PAYLOAD,2023-01-12 00:50:48,15.08863779,0.0002744,53.2178,123.5831,20.0925,340.0175,-0.00015851,-2.812e-05,0.0,0 STARLINK-3634,1 51798U 22017AG  23012.03528596 -.00002812  00000-0 -15851-3 0  9996,2 51798  53.2178 123.5831 0002744  20.0925 340.0175 15.08863779 49957,6917.808000000001,95.436,541.571,537.774,0.0
51798.0,STARLINK-3634,PAYLOAD,2023-01-12 16:44:40,15.08852612,0.0002809,53.2172,120.6105,22.4229,337.6885,0.00019046,2.745e-05,0.0,0 STARLINK-3634,1 51798U 22017AG  23012.69769144  .00002745  00000-0  19046-3 0  9997,2 51798  53.2172 120.6105 0002809  22.4229 337.6885 15.08852612 50055,6917.842,95.437,541.65,537.764,0.0
51798.0,STARLINK-3634,PAYLOAD,2023-01-13 00:41:37,15.0882772,0.0002757,53.2164,119.123,29.5983,330.5165,-0.00028492,-4.819e-05,0.0,0 STARLINK-3634,1 51798U 22017AG  23013.02890244 -.00004819  00000-0 -28492-3 0  9992,2 51798  53.2164 119.1230 0002757  29.5983 330.5165 15.08827720 50106,6917.9180000000015,95.438,541.69,537.876,0.0
51798.0,STARLINK-3634,PAYLOAD,2023-01-13 11:49:20,15.08820426,0.0002394,53.217,117.0413,32.4628,327.6511,-0.00022842,-3.92e-05,0.0,0 STARLINK-3634,1 51798U 22017AG  23013.49259283 -.00003920  00000-0 -22842-3 0  9990,2 51798  53.2170 117.0413 0002394  32.4628 327.6511 15.08820426 50174,6917.94,95.439,541.461,538.149,0.0
51798.0,STARLINK-3634,PAYLOAD,2023-01-13 13:24:43,15.08823226,0.0002703999999999,53.2171,116.7454,27.7098,332.4038,-0.00018879,-3.291e-05,0.0,0 STARLINK-3634,1 51798U 22017AG  23013.55883335 -.00003291  00000-0 -18879-3 0  9994,2 51798  53.2171 116.7454 0002704  27.7098 332.4038 15.08823226 50189,6917.932,95.439,541.6669999999999,537.9259999999999,0.0
51798.0,STARLINK-3634,PAYLOAD,2023-01-13 16:35:29,15.08825803,0.0002585,53.2164,116.1486,27.9002,332.2128,-9.5115e-05,-1.801e-05,0.0,0 STARLINK-3634,1 51798U 22017AG  23013.69131267 -.00001801  00000-0 -95115-4 0  9993,2 51798  53.2164 116.1486 0002585  27.9002 332.2128 15.08825803 50208,6917.924,95.438,541.577,538.001,0.0
51798.0,STARLINK-3634,PAYLOAD,2023-01-14 10:04:44,15.08832108,0.000273,53.2164,112.8801,24.9486,335.1637,0.00027281,4.055e-05,0.0,0 STARLINK-3634,1 51798U 22017AG  23014.41995877  .00004055  00000-0  27281-3 0  9999,2 51798  53.2164 112.8801 0002730  24.9486 335.1637 15.08832108 50312,6917.905,95.438,541.658,537.881,0.0
51798.0,STARLINK-3634,PAYLOAD,2023-01-15 09:55:32,15.08836931,0.0002463999999999,53.2172,108.4201,41.7344,318.3836,0.00038939,5.914e-05,0.0,0 STARLINK-3634,1 51798U 22017AG  23015.41356886  .00005914  00000-0  38939-3 0  9998,2 51798  53.2172 108.4201 0002464  41.7344 318.3836 15.08836931 50468,6917.89,95.438,541.4590000000001,538.05,0.0
